GLOBALSTAR M001         
1 25162U 98008A   24192.47931546 -.00000067  00000+0  22775-3 0  9997
2 25162  52.0018 247.7771 0001711 237.7045 135.2692 12.38188015201498
GLOBALSTAR M004         
1 25163U 98008B   24191.91401552 -.00000049  00000+0  30379-3 0  9994
2 25163  52.0016  18.3222 0002166 243.9587 214.6820 12.63364738218427
GLOBALSTAR M002         
1 25164U 98008C   24192.00016304 -.00000071  00000+0  10473-3 0  9991
2 25164  52.0034  18.1763 0000623 209.5042 150.5743 11.61502882144371
GLOBALSTAR M003         
1 25165U 98008D   24191.89384600  .00000053  00000+0  15191-2 0  9995
2 25165  51.9909  36.5341 0007603 329.4648 134.3433 12.12017459191800
GLOBALSTAR M014         
1 25306U 98023A   24191.68667674 -.00000075  00000+0  42461-4 0  9998
2 25306  51.9856 309.3894 0001442 106.9251  37.6278 11.65469348151235
GLOBALSTAR M006         
1 25307U 98023B   24191.95564426 -.00000080  00000+0 -86181-4 0  9994
2 25307  51.9962 348.3906 0003713 196.0840 343.7848 11.58163099177179
GLOBALSTAR M015         
1 25308U 98023C   24192.04958227 -.00000153  00000+0 -18232-2 0  9993
2 25308  51.9833  70.9453 0012093 185.8357 316.6057 11.48850744155123
GLOBALSTAR M008         
1 25309U 98023D   24192.20226856 -.00000038  00000+0  45932-3 0  9997
2 25309  51.9966 109.5366 0002178 164.6057   1.0300 12.36045336195860
